KUIPER-00016            
1 63732U 25088J   25216.58335648 -.00472802  00000+0 -37254-1 0  9998
2 63732  51.8931 352.9974 0011136  74.5481 226.8531 15.02401989  5753
KUIPER-00018            
1 63733U 25088K   25216.58335648 -.00829784  00000+0 -38908-1 0  9991
2 63733  51.8752 347.4990 0007147  80.8710 125.4428 15.21913327  5376
KUIPER-00019            
1 63734U 25088L   25216.58335648 -.01320257  00000+0 -51180-1 0  9991
2 63734  51.8735 346.7077 0006285  94.8610 127.8658 15.28613369  5340
KUIPER-00020            
1 63735U 25088M   25216.58335648 -.00043735  00000+0 -21809-2 0  9990
2 63735  51.8835 348.4247 0007032  94.6773 330.3921 15.17000177  5720
KUIPER-00021            
1 63736U 25088N   25216.58335648 -.00017478  00000+0 -90314-3 0  9994
2 63736  51.8730 349.0512 0005866  90.1100  71.5902 15.15257472  5661
KUIPER-00023            
1 63737U 25088P   25216.58335648 -.00027053  00000+0 -15117-2 0  9992
2 63737  51.8843 349.8258 0009972  91.1991  61.0584 15.12731084  4755
KUIPER-00024            
1 63738U 25088Q   25216.64353776  .00018262  00000+0  47832-3 0  9992
2 63738  51.8719 345.3328 0000972 106.0935 254.0159 15.38753096 15740
KUIPER-00025            
1 63739U 25088R   25216.58335648 -.00023508  00000+0 -10598-2 0  9993
2 63739  51.8785 347.5668 0008676  71.5564  48.1154 15.20146537  4526
